[{"OBJECT_NAME":"STARLINK-37091","OBJECT_ID":"2026-050AA","EPOCH":"2026-04-12T06:00:02.000160","MEAN_MOTION":15.6638477,"ECCENTRICITY":9.512e-5,"INCLINATION":53.159,"RA_OF_ASC_NODE":113.6068,"ARG_OF_PERICENTER":97.8331,"MEAN_ANOMALY":231.0727,"EPHEMERIS_TYPE":0,"CLASSIFICATION_TYPE":"U","NORAD_CAT_ID":68191,"ELEMENT_SET_NO":999,"REV_AT_EPOCH":583,"BSTAR":-0.020137214,"MEAN_MOTION_DOT":-0.01889188,"MEAN_MOTION_DDOT":0},{"OBJECT_NAME":"STARLINK-37098","OBJECT_ID":"2026-050AB","EPOCH":"2026-04-12T06:00:02.000160","MEAN_MOTION":15.64175664,"ECCENTRICITY":0.00011216,"INCLINATION":53.1596,"RA_OF_ASC_NODE":113.658,"ARG_OF_PERICENTER":105.7398,"MEAN_ANOMALY":197.9368,"EPHEMERIS_TYPE":0,"CLASSIFICATION_TYPE":"U","NORAD_CAT_ID":68192,"ELEMENT_SET_NO":999,"REV_AT_EPOCH":583,"BSTAR":-0.021919034,"MEAN_MOTION_DOT":-0.01882061,"MEAN_MOTION_DDOT":0},{"OBJECT_NAME":"STARLINK-37090","OBJECT_ID":"2026-050AC","EPOCH":"2026-04-12T06:00:02.000160","MEAN_MOTION":15.63089978,"ECCENTRICITY":0.00011566,"INCLINATION":53.1595,"RA_OF_ASC_NODE":113.6725,"ARG_OF_PERICENTER":105.4433,"MEAN_ANOMALY":190.7318,"EPHEMERIS_TYPE":0,"CLASSIFICATION_TYPE":"U","NORAD_CAT_ID":68193,"ELEMENT_SET_NO":999,"REV_AT_EPOCH":583,"BSTAR":-0.022859981,"MEAN_MOTION_DOT":-0.01880153,"MEAN_MOTION_DDOT":0},{"OBJECT_NAME":"STARLINK-37093","OBJECT_ID":"2026-050AD","EPOCH":"2026-04-12T06:00:02.000160","MEAN_MOTION":15.6418237,"ECCENTRICITY":0.00011924,"INCLINATION":53.1588,"RA_OF_ASC_NODE":113.6838,"ARG_OF_PERICENTER":105.7735,"MEAN_ANOMALY":185.2046,"EPHEMERIS_TYPE":0,"CLASSIFICATION_TYPE":"U","NORAD_CAT_ID":68194,"ELEMENT_SET_NO":999,"REV_AT_EPOCH":583,"BSTAR":-0.021876322,"MEAN_MOTION_DOT":-0.01879304,"MEAN_MOTION_DDOT":0},{"OBJECT_NAME":"STARLINK-37058","OBJECT_ID":"2026-050AE","EPOCH":"2026-04-12T06:00:02.000160","MEAN_MOTION":15.62669738,"ECCENTRICITY":0.00012158,"INCLINATION":53.1593,"RA_OF_ASC_NODE":113.695,"ARG_OF_PERICENTER":103.5605,"MEAN_ANOMALY":181.8772,"EPHEMERIS_TYPE":0,"CLASSIFICATION_TYPE":"U","NORAD_CAT_ID":68195,"ELEMENT_SET_NO":999,"REV_AT_EPOCH":583,"BSTAR":-0.023206399,"MEAN_MOTION_DOT":-0.01877574,"MEAN_MOTION_DDOT":0},{"OBJECT_NAME":"YAOGAN-50 02","OBJECT_ID":"2026-051A","EPOCH":"2026-04-12T07:08:08.129184","MEAN_MOTION":13.83262497,"ECCENTRICITY":7.113e-5,"INCLINATION":141.9859,"RA_OF_ASC_NODE":9.3936,"ARG_OF_PERICENTER":263.0524,"MEAN_ANOMALY":97.0115,"EPHEMERIS_TYPE":0,"CLASSIFICATION_TYPE":"U","NORAD_CAT_ID":68196,"ELEMENT_SET_NO":999,"REV_AT_EPOCH":386,"BSTAR":8.4871892e-5,"MEAN_MOTION_DOT":2.8e-6,"MEAN_MOTION_DDOT":0},{"OBJECT_NAME":"CZ-6A R/B","OBJECT_ID":"2026-051B","EPOCH":"2026-04-12T00:55:49.636416","MEAN_MOTION":14.5639592,"ECCENTRICITY":0.01873857,"INCLINATION":142.0298,"RA_OF_ASC_NODE":23.9776,"ARG_OF_PERICENTER":291.6176,"MEAN_ANOMALY":66.4712,"EPHEMERIS_TYPE":0,"CLASSIFICATION_TYPE":"U","NORAD_CAT_ID":68197,"ELEMENT_SET_NO":999,"REV_AT_EPOCH":402,"BSTAR":0.00010450092,"MEAN_MOTION_DOT":8.94e-6,"MEAN_MOTION_DDOT":0},{"OBJECT_NAME":"2026-052A","OBJECT_ID":"2026-052A","EPOCH":"2026-04-12T07:42:57.033216","MEAN_MOTION":15.10173991,"ECCENTRICITY":0.00142785,"INCLINATION":97.5351,"RA_OF_ASC_NODE":178.1341,"ARG_OF_PERICENTER":168.3929,"MEAN_ANOMALY":191.7632,"EPHEMERIS_TYPE":0,"CLASSIFICATION_TYPE":"U","NORAD_CAT_ID":68198,"ELEMENT_SET_NO":999,"REV_AT_EPOCH":410,"BSTAR":0.00024715683,"MEAN_MOTION_DOT":3.98e-5,"MEAN_MOTION_DDOT":0},{"OBJECT_NAME":"YUXING-3 06","OBJECT_ID":"2026-052B","EPOCH":"2026-04-12T07:39:14.794272","MEAN_MOTION":15.10276049,"ECCENTRICITY":0.00133031,"INCLINATION":97.5352,"RA_OF_ASC_NODE":178.1371,"ARG_OF_PERICENTER":169.4095,"MEAN_ANOMALY":190.7417,"EPHEMERIS_TYPE":0,"CLASSIFICATION_TYPE":"U","NORAD_CAT_ID":68199,"ELEMENT_SET_NO":999,"REV_AT_EPOCH":410,"BSTAR":0.00017357067,"MEAN_MOTION_DOT":2.783e-5,"MEAN_MOTION_DDOT":0},{"OBJECT_NAME":"2026-052C","OBJECT_ID":"2026-052C","EPOCH":"2026-04-12T07:36:06.977952","MEAN_MOTION":15.10375813,"ECCENTRICITY":0.00130646,"INCLINATION":97.5343,"RA_OF_ASC_NODE":178.1404,"ARG_OF_PERICENTER":171.8747,"MEAN_ANOMALY":188.2697,"EPHEMERIS_TYPE":0,"CLASSIFICATION_TYPE":"U","NORAD_CAT_ID":68200,"ELEMENT_SET_NO":999,"REV_AT_EPOCH":409,"BSTAR":0.0001506631,"MEAN_MOTION_DOT":2.413e-5,"MEAN_MOTION_DDOT":0},{"OBJECT_NAME":"2026-052D","OBJECT_ID":"2026-052D","EPOCH":"2026-04-12T07:30:36.023616","MEAN_MOTION":15.1066347,"ECCENTRICITY":0.00121126,"INCLINATION":97.533,"RA_OF_ASC_NODE":178.1437,"ARG_OF_PERICENTER":169.7709,"MEAN_ANOMALY":190.377,"EPHEMERIS_TYPE":0,"CLASSIFICATION_TYPE":"U","NORAD_CAT_ID":68201,"ELEMENT_SET_NO":999,"REV_AT_EPOCH":410,"BSTAR":0.00024462184,"MEAN_MOTION_DOT":3.99e-5,"MEAN_MOTION_DDOT":0},{"OBJECT_NAME":"2026-052E","OBJECT_ID":"2026-052E","EPOCH":"2026-04-12T05:55:13.122624","MEAN_MOTION":15.1065983,"ECCENTRICITY":0.00120372,"INCLINATION":97.5355,"RA_OF_ASC_NODE":178.0817,"ARG_OF_PERICENTER":172.4604,"MEAN_ANOMALY":187.6809,"EPHEMERIS_TYPE":0,"CLASSIFICATION_TYPE":"U","NORAD_CAT_ID":68202,"ELEMENT_SET_NO":999,"REV_AT_EPOCH":409,"BSTAR":0.00023630992,"MEAN_MOTION_DOT":3.852e-5,"MEAN_MOTION_DDOT":0},{"OBJECT_NAME":"2026-052F","OBJECT_ID":"2026-052F","EPOCH":"2026-04-12T07:24:00.233856","MEAN_MOTION":15.10919396,"ECCENTRICITY":0.00113199,"INCLINATION":97.5345,"RA_OF_ASC_NODE":178.1545,"ARG_OF_PERICENTER":165.3731,"MEAN_ANOMALY":194.7829,"EPHEMERIS_TYPE":0,"CLASSIFICATION_TYPE":"U","NORAD_CAT_ID":68203,"ELEMENT_SET_NO":999,"REV_AT_EPOCH":410,"BSTAR":0.00024749486,"MEAN_MOTION_DOT":4.066e-5,"MEAN_MOTION_DDOT":0},{"OBJECT_NAME":"2026-052G","OBJECT_ID":"2026-052G","EPOCH":"2026-04-12T07:22:46.386912","MEAN_MOTION":15.10967302,"ECCENTRICITY":0.00108658,"INCLINATION":97.5354,"RA_OF_ASC_NODE":178.1513,"ARG_OF_PERICENTER":167.9415,"MEAN_ANOMALY":192.2077,"EPHEMERIS_TYPE":0,"CLASSIFICATION_TYPE":"U","NORAD_CAT_ID":68204,"ELEMENT_SET_NO":999,"REV_AT_EPOCH":410,"BSTAR":0.00026247675,"MEAN_MOTION_DOT":4.321e-5,"MEAN_MOTION_DDOT":0},{"OBJECT_NAME":"KZ-11 R/B","OBJECT_ID":"2026-052H","EPOCH":"2026-04-12T03:40:31.027296","MEAN_MOTION":14.67970079,"ECCENTRICITY":0.05423056,"INCLINATION":97.339,"RA_OF_ASC_NODE":176.0878,"ARG_OF_PERICENTER":285.3873,"MEAN_ANOMALY":68.8062,"EPHEMERIS_TYPE":0,"CLASSIFICATION_TYPE":"U","NORAD_CAT_ID":68205,"ELEMENT_SET_NO":999,"REV_AT_EPOCH":396,"BSTAR":0.00023463274,"MEAN_MOTION_DOT":0.00015315,"MEAN_MOTION_DDOT":1.995507e-6},{"OBJECT_NAME":"2026-052J","OBJECT_ID":"2026-052J","EPOCH":"2026-04-12T06:28:57.219744","MEAN_MOTION":14.70291625,"ECCENTRICITY":0.05334998,"INCLINATION":97.3386,"RA_OF_ASC_NODE":176.2319,"ARG_OF_PERICENTER":284.864,"MEAN_ANOMALY":69.4084,"EPHEMERIS_TYPE":0,"CLASSIFICATION_TYPE":"U","NORAD_CAT_ID":68206,"ELEMENT_SET_NO":999,"REV_AT_EPOCH":398,"BSTAR":0.00061539672,"MEAN_MOTION_DOT":0.00042158,"MEAN_MOTION_DDOT":2.244716e-6}]
