STARLINK-37091
1 68191U 26102.25002315  1.88919-2 2.01372-2 0 0                     
2 68191  53.1590 113.6068 0000951  97.8331 231.0727 15.66384770      
STARLINK-37098
1 68192U 26102.25002315  1.88206-2 2.19190-2 0 0                     
2 68192  53.1596 113.6580 0001121 105.7398 197.9368 15.64175664      
STARLINK-37090
1 68193U 26102.25002315  1.88015-2 2.28600-2 0 0                     
2 68193  53.1595 113.6725 0001156 105.4433 190.7318 15.63089978      
STARLINK-37093
1 68194U 26102.25002315  1.87930-2 2.18763-2 0 0                     
2 68194  53.1588 113.6838 0001192 105.7735 185.2046 15.64182370      
STARLINK-37058
1 68195U 26102.25002315  1.87757-2 2.32064-2 0 0                     
2 68195  53.1593 113.6950 0001215 103.5605 181.8772 15.62669738      
YAOGAN-50 02
1 68196U 26102.29731481  2.80000-6 8.48719-5 0 0                     
2 68196 141.9859   9.3936 0000711 263.0524  97.0115 13.83262497      
2026-052A
1 68198U 26102.32149306  3.98000-5 2.47157-4 0 0                     
2 68198  97.5351 178.1341 0014278 168.3929 191.7632 15.10173991      
YUXING-3 06
1 68199U 26102.31891204  2.78300-5 1.73571-4 0 0                     
2 68199  97.5352 178.1371 0013303 169.4095 190.7417 15.10276049      
2026-052C
1 68200U 26102.31673611  2.41300-5 1.50663-4 0 0                     
2 68200  97.5343 178.1404 0013064 171.8747 188.2697 15.10375813      
2026-052D
1 68201U 26102.31291667  3.99000-5 2.44622-4 0 0                     
2 68201  97.5330 178.1437 0012112 169.7709 190.3770 15.10663470      
2026-052E
1 68202U 26102.24667824  3.85200-5 2.36310-4 0 0                     
2 68202  97.5355 178.0817 0012037 172.4604 187.6809 15.10659830      
2026-052F
1 68203U 26102.30833333  4.06600-5 2.47495-4 0 0                     
2 68203  97.5345 178.1545 0011319 165.3731 194.7829 15.10919396      
2026-052G
1 68204U 26102.30747685  4.32100-5 2.62477-4 0 0                     
2 68204  97.5354 178.1513 0010865 167.9415 192.2077 15.10967302      
2026-052J
1 68206U 26102.27010417  4.21580-4 6.15397-4 0 0                     
2 68206  97.3386 176.2319 0533499 284.8640  69.4084 14.70291625      
CZ-6A R/B
1 68197U 26102.03876157  8.94000-6 1.04501-4 0 0                     
2 68197 142.0298  23.9776 0187385 291.6176  66.4712 14.56395920      
KZ-11 R/B
1 68205U 26102.15313657  1.53150-4 2.34633-4 0 0                     
2 68205  97.3390 176.0878 0542305 285.3873  68.8062 14.67970079      
